DELTA 2 R/B(1)          
1 20453U 90008B   25354.24389821  .00034193  00000+0  53658-3 0  9996
2 20453  35.6080 332.0527 0111150 246.6814 112.2190 15.45794805913793
COSMOS 2058             
1 20465U 90010A   25354.44232973  .00003737  00000+0  22480-3 0  9998
2 20465  82.4697 125.4543 0008969 242.0897 117.9425 15.10541576930278
SL-14 R/B               
1 20466U 90010B   25354.43486586  .00000339  00000+0  38245-4 0  9991
2 20466  82.5020 341.8194 0019286 196.6707 163.3877 14.83477819916732
SL-14 R/B               
1 20511U 90018B   25353.90384644  .00000369  00000+0  43412-4 0  9998
2 20511  82.5215 297.6685 0016383   0.3373 359.7849 14.82053578910765
HST                     
1 20580U 90037B   25352.01685449  .00005616  00000+0  19114-3 0  9994
2 20580  28.4674 236.5696 0001951 306.2349  53.8065 15.28122551760808
SL-16 R/B               
1 20625U 90046B   25354.38068981 -.00000278  00000+0 -11882-3 0  9997
2 20625  70.9992 104.4753 0012029  59.7368 300.4943 14.14998932837178
COSMOS 2084             
1 20663U 90055A   25354.07590915  .00001753  00000+0  13590-3 0  9997
2 20663  62.7898 246.9957 0030537 175.6588 184.4784 15.05059399924332
SL-6 R/B(2)             
1 20666U 90055D   25353.88577609  .00001429  00000+0  11988-3 0  9992
2 20666  62.7810 165.1338 0013471 313.7550  46.2433 15.03103714926197
SL-8 R/B                
1 20775U 90078B   25354.33956264  .00013457  00000+0  41583-3 0  9995
2 20775  82.9048 322.5051 0370798 280.3217  75.6403 14.86216440797508
SL-8 R/B                
1 21088U 91006B   25354.09690779  .00000110  00000+0  95604-4 0  9990
2 21088  82.9420 229.2405 0021174 257.9356 211.6518 13.77491316753115
OKEAN-3                 
1 21397U 91039A   25353.60076446  .00002228  00000+0  15833-3 0  9991
2 21397  82.5178  54.4073 0013436 239.9462 120.0432 15.04163296852992
COSMOS 2151             
1 21422U 91042A   25354.49636920  .00001416  00000+0  11249-3 0  9996
2 21422  82.4962 160.0281 0011921 332.9010  27.1590 14.99713361851321
