CCSDS_OMM_VERS = 2.0
CREATION_DATE  = 
ORIGINATOR     = 

OBJECT_NAME    = DELTA 2 R/B(1)
OBJECT_ID      = 1990-008B
CENTER_NAME    = EARTH
REF_FRAME      = TEME
TIME_SYSTEM    = UTC
MEAN_ELEMENT_THEORY = SGP/SGP4

EPOCH          = 2025-12-20T05:51:12.805344
MEAN_MOTION    = 15.45794805
ECCENTRICITY   = .011115
INCLINATION    = 35.6080
RA_OF_ASC_NODE = 332.0527
ARG_OF_PERICENTER = 246.6814
MEAN_ANOMALY   = 112.2190

EPHEMERIS_TYPE = 0
CLASSIFICATION_TYPE = U
NORAD_CAT_ID   = 20453
ELEMENT_SET_NO = 999
REV_AT_EPOCH   = 91379
BSTAR          = .53658E-3
MEAN_MOTION_DOT = .34193E-3
MEAN_MOTION_DDOT = 0

CCSDS_OMM_VERS = 2.0
CREATION_DATE  = 
ORIGINATOR     = 

OBJECT_NAME    = COSMOS 2058
OBJECT_ID      = 1990-010A
CENTER_NAME    = EARTH
REF_FRAME      = TEME
TIME_SYSTEM    = UTC
MEAN_ELEMENT_THEORY = SGP/SGP4

EPOCH          = 2025-12-20T10:36:57.288672
MEAN_MOTION    = 15.10541576
ECCENTRICITY   = .0008969
INCLINATION    = 82.4697
RA_OF_ASC_NODE = 125.4543
ARG_OF_PERICENTER = 242.0897
MEAN_ANOMALY   = 117.9425

EPHEMERIS_TYPE = 0
CLASSIFICATION_TYPE = U
NORAD_CAT_ID   = 20465
ELEMENT_SET_NO = 999
REV_AT_EPOCH   = 93027
BSTAR          = .2248E-3
MEAN_MOTION_DOT = .3737E-4
MEAN_MOTION_DDOT = 0

CCSDS_OMM_VERS = 2.0
CREATION_DATE  = 
ORIGINATOR     = 

OBJECT_NAME    = SL-14 R/B
OBJECT_ID      = 1990-010B
CENTER_NAME    = EARTH
REF_FRAME      = TEME
TIME_SYSTEM    = UTC
MEAN_ELEMENT_THEORY = SGP/SGP4

EPOCH          = 2025-12-20T10:26:12.410304
MEAN_MOTION    = 14.83477819
ECCENTRICITY   = .0019286
INCLINATION    = 82.5020
RA_OF_ASC_NODE = 341.8194
ARG_OF_PERICENTER = 196.6707
MEAN_ANOMALY   = 163.3877

EPHEMERIS_TYPE = 0
CLASSIFICATION_TYPE = U
NORAD_CAT_ID   = 20466
ELEMENT_SET_NO = 999
REV_AT_EPOCH   = 91673
BSTAR          = .38245E-4
MEAN_MOTION_DOT = .339E-5
MEAN_MOTION_DDOT = 0

CCSDS_OMM_VERS = 2.0
CREATION_DATE  = 
ORIGINATOR     = 

OBJECT_NAME    = SL-14 R/B
OBJECT_ID      = 1990-018B
CENTER_NAME    = EARTH
REF_FRAME      = TEME
TIME_SYSTEM    = UTC
MEAN_ELEMENT_THEORY = SGP/SGP4

EPOCH          = 2025-12-19T21:41:32.332416
MEAN_MOTION    = 14.82053578
ECCENTRICITY   = .0016383
INCLINATION    = 82.5215
RA_OF_ASC_NODE = 297.6685
ARG_OF_PERICENTER = 0.3373
MEAN_ANOMALY   = 359.7849

EPHEMERIS_TYPE = 0
CLASSIFICATION_TYPE = U
NORAD_CAT_ID   = 20511
ELEMENT_SET_NO = 999
REV_AT_EPOCH   = 91076
BSTAR          = .43412E-4
MEAN_MOTION_DOT = .369E-5
MEAN_MOTION_DDOT = 0

CCSDS_OMM_VERS = 2.0
CREATION_DATE  = 
ORIGINATOR     = 

OBJECT_NAME    = HST
OBJECT_ID      = 1990-037B
CENTER_NAME    = EARTH
REF_FRAME      = TEME
TIME_SYSTEM    = UTC
MEAN_ELEMENT_THEORY = SGP/SGP4

EPOCH          = 2025-12-18T00:24:16.227936
MEAN_MOTION    = 15.28122551
ECCENTRICITY   = .00019512
INCLINATION    = 28.4674
RA_OF_ASC_NODE = 236.5696
ARG_OF_PERICENTER = 306.2349
MEAN_ANOMALY   = 53.8065

EPHEMERIS_TYPE = 0
CLASSIFICATION_TYPE = U
NORAD_CAT_ID   = 20580
ELEMENT_SET_NO = 999
REV_AT_EPOCH   = 76080
BSTAR          = .19113632E-3
MEAN_MOTION_DOT = .5616E-4
MEAN_MOTION_DDOT = 0

CCSDS_OMM_VERS = 2.0
CREATION_DATE  = 
ORIGINATOR     = 

OBJECT_NAME    = SL-16 R/B
OBJECT_ID      = 1990-046B
CENTER_NAME    = EARTH
REF_FRAME      = TEME
TIME_SYSTEM    = UTC
MEAN_ELEMENT_THEORY = SGP/SGP4

EPOCH          = 2025-12-20T09:08:11.599584
MEAN_MOTION    = 14.14998932
ECCENTRICITY   = .0012029
INCLINATION    = 70.9992
RA_OF_ASC_NODE = 104.4753
ARG_OF_PERICENTER = 59.7368
MEAN_ANOMALY   = 300.4943

EPHEMERIS_TYPE = 0
CLASSIFICATION_TYPE = U
NORAD_CAT_ID   = 20625
ELEMENT_SET_NO = 999
REV_AT_EPOCH   = 83717
BSTAR          = -.11882E-3
MEAN_MOTION_DOT = -.278E-5
MEAN_MOTION_DDOT = 0

CCSDS_OMM_VERS = 2.0
CREATION_DATE  = 
ORIGINATOR     = 

OBJECT_NAME    = COSMOS 2084
OBJECT_ID      = 1990-055A
CENTER_NAME    = EARTH
REF_FRAME      = TEME
TIME_SYSTEM    = UTC
MEAN_ELEMENT_THEORY = SGP/SGP4

EPOCH          = 2025-12-20T01:49:18.550560
MEAN_MOTION    = 15.05059399
ECCENTRICITY   = .00305376
INCLINATION    = 62.7898
RA_OF_ASC_NODE = 246.9957
ARG_OF_PERICENTER = 175.6588
MEAN_ANOMALY   = 184.4784

EPHEMERIS_TYPE = 0
CLASSIFICATION_TYPE = U
NORAD_CAT_ID   = 20663
ELEMENT_SET_NO = 999
REV_AT_EPOCH   = 92433
BSTAR          = .13590325E-3
MEAN_MOTION_DOT = .1753E-4
MEAN_MOTION_DDOT = 0

CCSDS_OMM_VERS = 2.0
CREATION_DATE  = 
ORIGINATOR     = 

OBJECT_NAME    = SL-6 R/B(2)
OBJECT_ID      = 1990-055D
CENTER_NAME    = EARTH
REF_FRAME      = TEME
TIME_SYSTEM    = UTC
MEAN_ELEMENT_THEORY = SGP/SGP4

EPOCH          = 2025-12-19T21:15:31.054176
MEAN_MOTION    = 15.03103714
ECCENTRICITY   = .0013471
INCLINATION    = 62.7810
RA_OF_ASC_NODE = 165.1338
ARG_OF_PERICENTER = 313.7550
MEAN_ANOMALY   = 46.2433

EPHEMERIS_TYPE = 0
CLASSIFICATION_TYPE = U
NORAD_CAT_ID   = 20666
ELEMENT_SET_NO = 999
REV_AT_EPOCH   = 92619
BSTAR          = .11988E-3
MEAN_MOTION_DOT = .1429E-4
MEAN_MOTION_DDOT = 0

CCSDS_OMM_VERS = 2.0
CREATION_DATE  = 
ORIGINATOR     = 

OBJECT_NAME    = SL-8 R/B
OBJECT_ID      = 1990-078B
CENTER_NAME    = EARTH
REF_FRAME      = TEME
TIME_SYSTEM    = UTC
MEAN_ELEMENT_THEORY = SGP/SGP4

EPOCH          = 2025-12-20T08:08:58.212096
MEAN_MOTION    = 14.86216440
ECCENTRICITY   = .0370798
INCLINATION    = 82.9048
RA_OF_ASC_NODE = 322.5051
ARG_OF_PERICENTER = 280.3217
MEAN_ANOMALY   = 75.6403

EPHEMERIS_TYPE = 0
CLASSIFICATION_TYPE = U
NORAD_CAT_ID   = 20775
ELEMENT_SET_NO = 999
REV_AT_EPOCH   = 79750
BSTAR          = .41583E-3
MEAN_MOTION_DOT = .13457E-3
MEAN_MOTION_DDOT = 0

CCSDS_OMM_VERS = 2.0
CREATION_DATE  = 
ORIGINATOR     = 

OBJECT_NAME    = SL-8 R/B
OBJECT_ID      = 1991-006B
CENTER_NAME    = EARTH
REF_FRAME      = TEME
TIME_SYSTEM    = UTC
MEAN_ELEMENT_THEORY = SGP/SGP4

EPOCH          = 2025-12-20T02:19:32.833056
MEAN_MOTION    = 13.77491316
ECCENTRICITY   = .0021174
INCLINATION    = 82.9420
RA_OF_ASC_NODE = 229.2405
ARG_OF_PERICENTER = 257.9356
MEAN_ANOMALY   = 211.6518

EPHEMERIS_TYPE = 0
CLASSIFICATION_TYPE = U
NORAD_CAT_ID   = 21088
ELEMENT_SET_NO = 999
REV_AT_EPOCH   = 75311
BSTAR          = .95603976E-4
MEAN_MOTION_DOT = .11E-5
MEAN_MOTION_DDOT = 0

CCSDS_OMM_VERS = 2.0
CREATION_DATE  = 
ORIGINATOR     = 

OBJECT_NAME    = OKEAN-3
OBJECT_ID      = 1991-039A
CENTER_NAME    = EARTH
REF_FRAME      = TEME
TIME_SYSTEM    = UTC
MEAN_ELEMENT_THEORY = SGP/SGP4

EPOCH          = 2025-12-19T14:25:06.049344
MEAN_MOTION    = 15.04163296
ECCENTRICITY   = .0013436
INCLINATION    = 82.5178
RA_OF_ASC_NODE = 54.4073
ARG_OF_PERICENTER = 239.9462
MEAN_ANOMALY   = 120.0432

EPHEMERIS_TYPE = 0
CLASSIFICATION_TYPE = U
NORAD_CAT_ID   = 21397
ELEMENT_SET_NO = 999
REV_AT_EPOCH   = 85299
BSTAR          = .15833E-3
MEAN_MOTION_DOT = .2228E-4
MEAN_MOTION_DDOT = 0

CCSDS_OMM_VERS = 2.0
CREATION_DATE  = 
ORIGINATOR     = 

OBJECT_NAME    = COSMOS 2151
OBJECT_ID      = 1991-042A
CENTER_NAME    = EARTH
REF_FRAME      = TEME
TIME_SYSTEM    = UTC
MEAN_ELEMENT_THEORY = SGP/SGP4

EPOCH          = 2025-12-20T11:54:46.298880
MEAN_MOTION    = 14.99713361
ECCENTRICITY   = .0011921
INCLINATION    = 82.4962
RA_OF_ASC_NODE = 160.0281
ARG_OF_PERICENTER = 332.9010
MEAN_ANOMALY   = 27.1590

EPHEMERIS_TYPE = 0
CLASSIFICATION_TYPE = U
NORAD_CAT_ID   = 21422
ELEMENT_SET_NO = 999
REV_AT_EPOCH   = 85132
BSTAR          = .11249E-3
MEAN_MOTION_DOT = .1416E-4
MEAN_MOTION_DDOT = 0

